{"type": "FeatureCollection", "features": [ {"type": "Feature", "properties": {"norad_id": 66569, "name": "STARLINK-35835", "group": "last-30-days", "lat": 15.178593483718227, "lon": 149.47230018781877, "alt_km": 413.1464091848866, "timestamp": "2025-12-10T18:56:58.833245+00:00", "meta": {"OBJECT_NAME": "STARLINK-35835", "OBJECT_ID": "2025-268N", "EPOCH": "2025-12-10T12:00:02.998944", "MEAN_MOTION": 15.50599535, "ECCENTRICITY": 0.0001506, "INCLINATION": 43.0002, "RA_OF_ASC_NODE": 134.2405, "ARG_OF_PERICENTER": 265.2285, "MEAN_ANOMALY": 299.2744, "EPHEMERIS_TYPE": 0, "CLASSIFICATION_TYPE": "U", "NORAD_CAT_ID": 66569, "ELEMENT_SET_NO": 999, "REV_AT_EPOCH": 430, "BSTAR": -0.0013626, "MEAN_MOTION_DOT": -0.00079528, "MEAN_MOTION_DDOT": 0}, "tle": {"line1": "1 66569U 25268N   25344.50003471 -.00079528  00000+0 -13626-2 0  9995", "line2": "2 66569  43.0002 134.2405 0001506 265.2285 299.2744 15.50599535  4305"}}, "geometry": {"type": "Point", "coordinates": [149.47230018781877, 15.178593483718227]}}, {"type": "Feature", "properties": {"norad_id": 66570, "name": "STARLINK-35834", "group": "last-30-days", "lat": 16.42089953460926, "lon": 150.97803000056675, "alt_km": 413.0067275764013, "timestamp": "2025-12-10T18:56:58.833257+00:00", "meta": {"OBJECT_NAME": "STARLINK-35834", "OBJECT_ID": "2025-268P", "EPOCH": "2025-12-10T12:00:02.998944", "MEAN_MOTION": 15.50609823, "ECCENTRICITY": 0.0001397, "INCLINATION": 43.0003, "RA_OF_ASC_NODE": 134.2349, "ARG_OF_PERICENTER": 260.7257, "MEAN_ANOMALY": 305.6834, "EPHEMERIS_TYPE": 0, "CLASSIFICATION_TYPE": "U", "NORAD_CAT_ID": 66570, "ELEMENT_SET_NO": 999, "REV_AT_EPOCH": 430, "BSTAR": -0.0015691, "MEAN_MOTION_DOT": -0.00091423, "MEAN_MOTION_DDOT": 0}, "tle": {"line1": "1 66570U 25268P   25344.50003471 -.00091423  00000+0 -15691-2 0  9999", "line2": "2 66570  43.0003 134.2349 0001397 260.7257 305.6834 15.50609823  4306"}}, "geometry": {"type": "Point", "coordinates": [150.97803000056675, 16.42089953460926]}}, {"type": "Feature", "properties": {"norad_id": 66571, "name": "STARLINK-35836", "group": "last-30-days", "lat": 17.655441576574997, "lon": 152.50862295088658, "alt_km": 412.8390053610119, "timestamp": "2025-12-10T18:56:58.833267+00:00", "meta": {"OBJECT_NAME": "STARLINK-35836", "OBJECT_ID": "2025-268Q", "EPOCH": "2025-12-10T12:00:02.998944", "MEAN_MOTION": 15.50587442, "ECCENTRICITY": 0.0001521, "INCLINATION": 43.0003, "RA_OF_ASC_NODE": 134.2307, "ARG_OF_PERICENTER": 263.697, "MEAN_ANOMALY": 304.6386, "EPHEMERIS_TYPE": 0, "CLASSIFICATION_TYPE": "U", "NORAD_CAT_ID": 66571, "ELEMENT_SET_NO": 999, "REV_AT_EPOCH": 430, "BSTAR": -0.00090099, "MEAN_MOTION_DOT": -0.00052859, "MEAN_MOTION_DDOT": 0}, "tle": {"line1": "1 66571U 25268Q   25344.50003471 -.00052859  00000+0 -90099-3 0  9996", "line2": "2 66571  43.0003 134.2307 0001521 263.6970 304.6386 15.50587442  4307"}}, "geometry": {"type": "Point", "coordinates": [152.50862295088658, 17.655441576574997]}}, {"type": "Feature", "properties": {"norad_id": 66572, "name": "STARLINK-35870", "group": "last-30-days", "lat": 18.880871780454136, "lon": 154.0641246893434, "alt_km": 412.64581889997044, "timestamp": "2025-12-10T18:56:58.833279+00:00", "meta": {"OBJECT_NAME": "STARLINK-35870", "OBJECT_ID": "2025-268R", "EPOCH": "2025-12-10T12:00:02.998944", "MEAN_MOTION": 15.50597914, "ECCENTRICITY": 0.000145, "INCLINATION": 43.0002, "RA_OF_ASC_NODE": 134.2265, "ARG_OF_PERICENTER": 264.3914, "MEAN_ANOMALY": 305.8614, "EPHEMERIS_TYPE": 0, "CLASSIFICATION_TYPE": "U", "NORAD_CAT_ID": 66572, "ELEMENT_SET_NO": 999, "REV_AT_EPOCH": 430, "BSTAR": -0.0012662, "MEAN_MOTION_DOT": -0.00073977, "MEAN_MOTION_DDOT": 0}, "tle": {"line1": "1 66572U 25268R   25344.50003471 -.00073977  00000+0 -12662-2 0  9990", "line2": "2 66572  43.0002 134.2265 0001450 264.3914 305.8614 15.50597914  4309"}}, "geometry": {"type": "Point", "coordinates": [154.0641246893434, 18.880871780454136]}}, {"type": "Feature", "properties": {"norad_id": 66573, "name": "STARLINK-35650", "group": "last-30-days", "lat": 20.11244091706341, "lon": 155.6661543753097, "alt_km": 412.4979050730726, "timestamp": "2025-12-10T18:56:58.833289+00:00", "meta": {"OBJECT_NAME": "STARLINK-35650", "OBJECT_ID": "2025-268S", "EPOCH": "2025-12-10T12:00:02.998944", "MEAN_MOTION": 15.50643243, "ECCENTRICITY": 0.0002118, "INCLINATION": 43.0002, "RA_OF_ASC_NODE": 134.2205, "ARG_OF_PERICENTER": 275.9492, "MEAN_ANOMALY": 296.2263, "EPHEMERIS_TYPE": 0, "CLASSIFICATION_TYPE": "U", "NORAD_CAT_ID": 66573, "ELEMENT_SET_NO": 999, "REV_AT_EPOCH": 430, "BSTAR": -0.0027958, "MEAN_MOTION_DOT": -0.00161407, "MEAN_MOTION_DDOT": 0}, "tle": {"line1": "1 66573U 25268S   25344.50003471 -.00161407  00000+0 -27958-2 0  9991", "line2": "2 66573  43.0002 134.2205 0002118 275.9492 296.2263 15.50643243  4305"}}, "geometry": {"type": "Point", "coordinates": [155.6661543753097, 20.11244091706341]}}, {"type": "Feature", "properties": {"norad_id": 66574, "name": "STARLINK-35812", "group": "last-30-days", "lat": 21.28619645273547, "lon": 157.23640093312918, "alt_km": 412.41456864149404, "timestamp": "2025-12-10T18:56:58.833301+00:00", "meta": {"OBJECT_NAME": "STARLINK-35812", "OBJECT_ID": "2025-268T", "EPOCH": "2025-12-10T12:00:02.998944", "MEAN_MOTION": 15.50586482, "ECCENTRICITY": 0.000182, "INCLINATION": 43.0002, "RA_OF_ASC_NODE": 134.2158, "ARG_OF_PERICENTER": 266.6241, "MEAN_ANOMALY": 307.4632, "EPHEMERIS_TYPE": 0, "CLASSIFICATION_TYPE": "U", "NORAD_CAT_ID": 66574, "ELEMENT_SET_NO": 999, "REV_AT_EPOCH": 430, "BSTAR": -0.00082642, "MEAN_MOTION_DOT": -0.00048538, "MEAN_MOTION_DDOT": 0}, "tle": {"line1": "1 66574U 25268T   25344.50003471 -.00048538  00000+0 -82642-3 0  9993", "line2": "2 66574  43.0002 134.2158 0001820 266.6241 307.4632 15.50586482  4307"}}, "geometry": {"type": "Point", "coordinates": [157.23640093312918, 21.28619645273547]}}, {"type": "Feature", "properties": {"norad_id": 66575, "name": "STARLINK-35810", "group": "last-30-days", "lat": 22.465410807221502, "lon": 158.8603717859895, "alt_km": 412.1635689791692, "timestamp": "2025-12-10T18:56:58.833313+00:00", "meta": {"OBJECT_NAME": "STARLINK-35810", "OBJECT_ID": "2025-268U", "EPOCH": "2025-12-10T12:00:02.998944", "MEAN_MOTION": 15.50590758, "ECCENTRICITY": 0.0001709, "INCLINATION": 43.0002, "RA_OF_ASC_NODE": 134.2112, "ARG_OF_PERICENTER": 269.8869, "MEAN_ANOMALY": 306.1146, "EPHEMERIS_TYPE": 0, "CLASSIFICATION_TYPE": "U", "NORAD_CAT_ID": 66575, "ELEMENT_SET_NO": 999, "REV_AT_EPOCH": 430, "BSTAR": -0.00097631, "MEAN_MOTION_DOT": -0.00057225, "MEAN_MOTION_DDOT": 0}, "tle": {"line1": "1 66575U 25268U   25344.50003471 -.00057225  00000+0 -97631-3 0  9991", "line2": "2 66575  43.0002 134.2112 0001709 269.8869 306.1146 15.50590758  4302"}}, "geometry": {"type": "Point", "coordinates": [158.8603717859895, 22.465410807221502]}}, {"type": "Feature", "properties": {"norad_id": 66576, "name": "STARLINK-35814", "group": "last-30-days", "lat": 23.629748178859817, "lon": 160.51412644335508, "alt_km": 412.20584894523836, "timestamp": "2025-12-10T18:56:58.833333+00:00", "meta": {"OBJECT_NAME": "STARLINK-35814", "OBJECT_ID": "2025-268V", "EPOCH": "2025-12-10T12:00:02.998944", "MEAN_MOTION": 15.5059448, "ECCENTRICITY": 0.0001811, "INCLINATION": 43.0003, "RA_OF_ASC_NODE": 134.2062, "ARG_OF_PERICENTER": 260.1758, "MEAN_ANOMALY": 317.7425, "EPHEMERIS_TYPE": 0, "CLASSIFICATION_TYPE": "U", "NORAD_CAT_ID": 66576, "ELEMENT_SET_NO": 999, "REV_AT_EPOCH": 430, "BSTAR": -0.0010372, "MEAN_MOTION_DOT": -0.00060752, "MEAN_MOTION_DDOT": 0}, "tle": {"line1": "1 66576U 25268V   25344.50003471 -.00060752  00000+0 -10372-2 0  9997", "line2": "2 66576  43.0003 134.2062 0001811 260.1758 317.7425 15.50594480  4307"}}, "geometry": {"type": "Point", "coordinates": [160.51412644335508, 23.629748178859817]}}, {"type": "Feature", "properties": {"norad_id": 66577, "name": "STARLINK-35815", "group": "last-30-days", "lat": 24.7763468031498, "lon": 162.19825193803973, "alt_km": 411.9099688137385, "timestamp": "2025-12-10T18:56:58.833342+00:00", "meta": {"OBJECT_NAME": "STARLINK-35815", "OBJECT_ID": "2025-268W", "EPOCH": "2025-12-10T12:00:02.998944", "MEAN_MOTION": 15.50602074, "ECCENTRICITY": 0.0001601, "INCLINATION": 43.0001, "RA_OF_ASC_NODE": 134.2014, "ARG_OF_PERICENTER": 264.0776, "MEAN_ANOMALY": 315.7591, "EPHEMERIS_TYPE": 0, "CLASSIFICATION_TYPE": "U", "NORAD_CAT_ID": 66577, "ELEMENT_SET_NO": 999, "REV_AT_EPOCH": 430, "BSTAR": -0.0014091, "MEAN_MOTION_DOT": -0.00082213, "MEAN_MOTION_DDOT": 0}, "tle": {"line1": "1 66577U 25268W   25344.50003471 -.00082213  00000+0 -14091-2 0  9996", "line2": "2 66577  43.0001 134.2014 0001601 264.0776 315.7591 15.50602074  4304"}}, "geometry": {"type": "Point", "coordinates": [162.19825193803973, 24.7763468031498]}}, {"type": "Feature", "properties": {"norad_id": 66578, "name": "STARLINK-35743", "group": "last-30-days", "lat": 25.902900394544822, "lon": 163.9120202864492, "alt_km": 411.7987464894277, "timestamp": "2025-12-10T18:56:58.833353+00:00", "meta": {"OBJECT_NAME": "STARLINK-35743", "OBJECT_ID": "2025-268X", "EPOCH": "2025-12-10T12:00:02.998944", "MEAN_MOTION": 15.50600188, "ECCENTRICITY": 0.0001597, "INCLINATION": 43.0001, "RA_OF_ASC_NODE": 134.1964, "ARG_OF_PERICENTER": 260.646, "MEAN_ANOMALY": 321.11, "EPHEMERIS_TYPE": 0, "CLASSIFICATION_TYPE": "U", "NORAD_CAT_ID": 66578, "ELEMENT_SET_NO": 999, "REV_AT_EPOCH": 430, "BSTAR": -0.0013571, "MEAN_MOTION_DOT": -0.00079215, "MEAN_MOTION_DDOT": 0}, "tle": {"line1": "1 66578U 25268X   25344.50003471 -.00079215  00000+0 -13571-2 0  9997", "line2": "2 66578  43.0001 134.1964 0001597 260.6460 321.1100 15.50600188  4305"}}, "geometry": {"type": "Point", "coordinates": [163.9120202864492, 25.902900394544822]}}]}